{"fetched_at":"2026-07-18T17:29:33.240Z","source":"https://celestrak.org/NORAD/elements/gp.php?GROUP=planet&FORMAT=JSON","constellation":"tanager","records":[{"OBJECT_NAME":"TANAGER-1","OBJECT_ID":"2024-149AR","EPOCH":"2026-07-18T04:41:07.285344","CLASSIFICATION_TYPE":"U","MEAN_MOTION":15.43943177,"ECCENTRICITY":0.00018216,"INCLINATION":97.2314,"RA_OF_ASC_NODE":293.3122,"ARG_OF_PERICENTER":145.1446,"MEAN_ANOMALY":214.9922,"EPHEMERIS_TYPE":0,"NORAD_CAT_ID":60507,"ELEMENT_SET_NO":999,"REV_AT_EPOCH":10782,"BSTAR":0.000005762033,"MEAN_MOTION_DOT":0.00000178,"MEAN_MOTION_DDOT":0}]}
